[{"OBJECT_NAME":"LAPAN-A3","OBJECT_ID":"2016-040E","EPOCH":"2026-03-09T23:01:57.724896","MEAN_MOTION":15.3238951,"ECCENTRICITY":0.00109839,"INCLINATION":97.1488,"RA_OF_ASC_NODE":68.4254,"ARG_OF_PERICENTER":22.062,"MEAN_ANOMALY":338.1093,"EPHEMERIS_TYPE":0,"CLASSIFICATION_TYPE":"U","NORAD_CAT_ID":41603,"ELEMENT_SET_NO":999,"REV_AT_EPOCH":53961,"BSTAR":0.00017567445,"MEAN_MOTION_DOT":5.428e-5,"MEAN_MOTION_DDOT":0},{"OBJECT_NAME":"STARLINK-31884","OBJECT_ID":"2024-084Y","EPOCH":"2026-03-09T22:50:40.729056","MEAN_MOTION":15.27642117,"ECCENTRICITY":0.0001863,"INCLINATION":43.0063,"RA_OF_ASC_NODE":40.2991,"ARG_OF_PERICENTER":280.5107,"MEAN_ANOMALY":79.5535,"EPHEMERIS_TYPE":0,"CLASSIFICATION_TYPE":"U","NORAD_CAT_ID":59676,"ELEMENT_SET_NO":999,"REV_AT_EPOCH":10441,"BSTAR":-0.00055951916,"MEAN_MOTION_DOT":-0.00015656,"MEAN_MOTION_DDOT":0}]
